# Made by eph2tle, compiled Apr 30 2024 22:26:27
# Run at Mon Jun  3 12:49:04 2024
#
#    The following TLEs (Two-Line Elements) were generated by fitting
# a numerically-integrated ephemeris,  based on the orbit given below,
# to the SDP4/SGP4 models.  Each TLE is good for the interval between
# its epoch and the epoch of the subsequent TLE (usually one day).
# The maximum deviation between the numerically integrated ephemerides
# and the TLE-based ephemeris, in kilometers,  is given for each TLE
# as the "worst residual".
#
#    This fitting is done using the 'eph2tle' code packaged with Find_Orb.
# The code has details on how the TLEs were computed :
#
#    https://github.com/Bill-Gray/find_orb/eph2tle.cpp
#
#    Be warned:  the error given is that between the numerically
# integrated ephems and the TLE model.  There will usually be at
# least some additional difference between the ephems and the actual
# motion of the satellite,  especially if the ephemerides are based
# on a short arc.  If the following orbital elements say something
# like "[based on] 10 observations 2015 Jan. 1-13",  and the TLEs
# are for 2015 May,  the extrapolation may be tenuous at best.  If
# your application requires a specific level of accuracy,  you may
# want to contact me;  I can give you some idea as to the fit of the
# underlying data (and possibly TLEs based on newer data).
#
#   You can usually find the underlying observational data,  and the
# fitted orbit,  residuals,  ephemerides,  and sometimes some comments
# about the object,  among the pages listed at
#
#    https://www.projectpluto.com/pluto/mpecs/pseudo.htm
#
#    Also,  if you use a TLE outside the "correct" time range (between
# its MJD and that of the next TLE),  all bets are off.  I've carefully
# computed and minimized the worst error over the "correct" time frame,
# but the ephemeris may (or may not) diverge wildly outside of it.
#
# Ephem range: 60370.000000 60523.000000 1.000000
# Created Mon Jun  3 12:48:49 2024
# Ephemeris start:  1 Mar 2024  0:00:00
# Ephemeris end:    1 Aug 2024  0:00:00
# Times are all TDT
# Positions/velocities are in equatorial J2000
# Orbital elements:  A116CgX = A116I21
#    Perigee 2024 May 15.9691998 +/- 9.73e-6 TT = 23:15:38.86 (JD 2460446.4691998)
# Epoch 2024 May 15.0 TT; AMR 0.013918 +/- 0.00273 m^2/kg          Find_Orb
# M 205.7649417357 +/- 0.0018         (J2000 equator)
# n 159.1364964862 +/- 0.000289       Peri.  150.1573004 +/- 0.00044
# a 72793.116149 +/- 0.0881           Node     0.6286827 +/- 0.00035
# e   0.900983268 +/- 3.33e-6         Incl.   27.7898715 +/- 0.00026
# P3257.519m/2.262d          H 27.93  G  0.15   U  7.3
# q 7207.7364185 +/- 0.244    Q 138378.49587 +/- 0.274
# From 38 observations 2024 May 12-June 2; mean residual 1".875
#
# 1 NoradU COSPAR   Epoch.epoch     dn/dt/2  d2n/dt2/6 BSTAR    T El# C
# 2 NoradU Inclina RAAscNode Eccent  ArgPeri MeanAno  MeanMotion Rev# C

# Worst residual: 5.79 km
# MJD 60370.000000 (2024 Mar  1  0:00)
A116CgX = A116I21
1 79925U 24999ZZO 24061.49919926  .00000000  00000-0  00000-0 0 23465
2 79925 027.7043 004.8271 9055469 143.2398 233.2024 00.44191344    03

# Worst residual: 14.75 km
# MJD 60371.000000 (2024 Mar  2  0:00)
A116CgX = A116I21
1 79925U 24999ZZO 24062.49919926  .00000000  00000-0  00000-0 0 23466
2 79925 027.7242 004.7415 9052979 143.3642 032.2241 00.44211782    06

# Worst residual: 4.39 km
# MJD 60372.000000 (2024 Mar  3  0:00)
A116CgX = A116I21
1 79925U 24999ZZO 24063.49919926  .00000000  00000-0  00000-0 0 23467
2 79925 027.7133 004.6960 9054074 143.4508 191.2745 00.44200093    07

# Worst residual: 16.61 km
# MJD 60373.000000 (2024 Mar  4  0:00)
A116CgX = A116I21
1 79925U 24999ZZO 24064.49919926  .00000000  00000-0  00000-0 0 23468
2 79925 027.7373 004.6168 9050747 143.5571 350.3251 00.44199117    01

# Worst residual: 5.97 km
# MJD 60374.000000 (2024 Mar  5  0:00)
A116CgX = A116I21
1 79925U 24999ZZO 24065.49919926  .00000000  00000-0  00000-0 0 23469
2 79925 027.7281 004.5547 9053721 143.6489 149.3532 00.44194260    05

# Worst residual: 16.73 km
# MJD 60375.000000 (2024 Mar  6  0:00)
A116CgX = A116I21
1 79925U 24999ZZO 24066.49919926  .00000000  00000-0  00000-0 0 23460
2 79925 027.7495 004.4853 9054361 143.7419 308.5021 00.44173435    09

# Worst residual: 10.32 km
# MJD 60376.000000 (2024 Mar  7  0:00)
A116CgX = A116I21
1 79925U 24999ZZO 24067.49919926  .00000000  00000-0  00000-0 0 23461
2 79925 027.7472 004.3986 9055472 143.9002 107.4362 00.44156096    02

# Worst residual: 5.52 km
# MJD 60377.000000 (2024 Mar  8  0:00)
A116CgX = A116I21
1 79925U 24999ZZO 24068.49919926  .00000000  00000-0  00000-0 0 23462
2 79925 027.7272 004.3841 9060333 143.9710 266.2405 00.44172570    05

# Worst residual: 19.52 km
# MJD 60378.000000 (2024 Mar  9  0:00)
A116CgX = A116I21
1 79925U 24999ZZO 24069.49919926  .00000000  00000-0  00000-0 0 23463
2 79925 027.7493 004.2719 9061369 144.1824 065.2604 00.44191349    05

# Worst residual: 14.97 km
# MJD 60379.000000 (2024 Mar 10  0:00)
A116CgX = A116I21
1 79925U 24999ZZO 24070.49919926  .00000000  00000-0  00000-0 0 23465
2 79925 027.7268 004.2586 9056297 144.2631 224.2453 00.44181414    09

# Worst residual: 33.09 km
# MJD 60380.000000 (2024 Mar 11  0:00)
A116CgX = A116I21
1 79925U 24999ZZO 24071.49919926  .00000000  00000-0  00000-0 0 23466
2 79925 027.7492 004.1738 9052519 144.3864 023.2031 00.44206824    00

# Worst residual: 4.00 km
# MJD 60381.000000 (2024 Mar 12  0:00)
A116CgX = A116I21
1 79925U 24999ZZO 24072.49919926  .00000000  00000-0  00000-0 0 23467
2 79925 027.7377 004.1255 9052317 144.4777 182.4191 00.44224710    05

# Worst residual: 13.99 km
# MJD 60382.000000 (2024 Mar 13  0:00)
A116CgX = A116I21
1 79925U 24999ZZO 24073.49919926  .00000000  00000-0  00000-0 0 23468
2 79925 027.7624 004.0487 9048280 144.5726 341.5331 00.44228172    05

# Worst residual: 6.88 km
# MJD 60383.000000 (2024 Mar 14  0:00)
A116CgX = A116I21
1 79925U 24999ZZO 24074.49919926  .00000000  00000-0  00000-0 0 23469
2 79925 027.7552 003.9830 9050911 144.6745 140.6551 00.44218855    00

# Worst residual: 10.53 km
# MJD 60384.000000 (2024 Mar 15  0:00)
A116CgX = A116I21
1 79925U 24999ZZO 24075.49919926  .00000000  00000-0  00000-0 0 23460
2 79925 027.7610 003.9313 9050503 144.7598 299.7716 00.44222603    00

# Worst residual: 10.47 km
# MJD 60385.000000 (2024 Mar 16  0:00)
A116CgX = A116I21
1 79925U 24999ZZO 24076.49919926  .00000000  00000-0  00000-0 0 23461
2 79925 027.7749 003.8308 9051851 144.9101 098.8929 00.44213945    08

# Worst residual: 7.22 km
# MJD 60386.000000 (2024 Mar 17  0:00)
A116CgX = A116I21
1 79925U 24999ZZO 24077.49919926  .00000000  00000-0  00000-0 0 23462
2 79925 027.7500 003.8247 9052037 144.9595 257.9739 00.44211056    07

# Worst residual: 15.40 km
# MJD 60387.000000 (2024 Mar 18  0:00)
A116CgX = A116I21
1 79925U 24999ZZO 24078.49919926  .00000000  00000-0  00000-0 0 23463
2 79925 027.7718 003.7238 9051385 145.1147 057.0803 00.44205588    02

# Worst residual: 6.28 km
# MJD 60388.000000 (2024 Mar 19  0:00)
A116CgX = A116I21
1 79925U 24999ZZO 24079.49919926  .00000000  00000-0  00000-0 0 23464
2 79925 027.7488 003.7088 9051599 145.1664 216.2078 00.44209698    09

# Worst residual: 24.48 km
# MJD 60389.000000 (2024 Mar 20  0:00)
A116CgX = A116I21
1 79925U 24999ZZO 24080.49919926  .00000000  00000-0  00000-0 0 23466
2 79925 027.7691 003.6311 9050853 145.2827 015.3306 00.44182627    01

# Worst residual: 4.36 km
# MJD 60390.000000 (2024 Mar 21  0:00)
A116CgX = A116I21
1 79925U 24999ZZO 24081.49919926  .00000000  00000-0  00000-0 0 23467
2 79925 027.7581 003.5797 9050686 145.3716 174.4909 00.44211214    09

# Worst residual: 25.24 km
# MJD 60391.000000 (2024 Mar 22  0:00)
A116CgX = A116I21
1 79925U 24999ZZO 24082.49919926  .00000000  00000-0  00000-0 0 23468
2 79925 027.7833 003.5046 9049714 145.4673 333.6691 00.44180270    03

# Worst residual: 13.43 km
# MJD 60392.000000 (2024 Mar 23  0:00)
A116CgX = A116I21
1 79925U 24999ZZO 24083.49919926  .00000000  00000-0  00000-0 0 23469
2 79925 027.7743 003.4383 9049424 145.5869 132.7789 00.44204632    07

# Worst residual: 13.78 km
# MJD 60393.000000 (2024 Mar 24  0:00)
A116CgX = A116I21
1 79925U 24999ZZO 24084.49919926  .00000000  00000-0  00000-0 0 23460
2 79925 027.7762 003.3903 9050082 145.6588 291.9669 00.44201758    07

# Worst residual: 22.93 km
# MJD 60394.000000 (2024 Mar 25  0:00)
A116CgX = A116I21
1 79925U 24999ZZO 24085.49919926  .00000000  00000-0  00000-0 0 23461
2 79925 027.7958 003.2831 9049054 145.8294 091.0321 00.44190494    04

# Worst residual: 4.81 km
# MJD 60395.000000 (2024 Mar 26  0:00)
A116CgX = A116I21
1 79925U 24999ZZO 24086.49919926  .00000000  00000-0  00000-0 0 23462
2 79925 027.7656 003.2859 9052157 145.8554 250.2062 00.44216157    02

# Worst residual: 18.83 km
# MJD 60396.000000 (2024 Mar 27  0:00)
A116CgX = A116I21
1 79925U 24999ZZO 24087.49919926  .00000000  00000-0  00000-0 0 23463
2 79925 027.7880 003.1925 9050593 145.9905 049.3164 00.44216093    06

# Worst residual: 4.41 km
# MJD 60397.000000 (2024 Mar 28  0:00)
A116CgX = A116I21
1 79925U 24999ZZO 24088.49919926  .00000000  00000-0  00000-0 0 23464
2 79925 027.7660 003.1722 9052132 146.0526 208.4483 00.44219927    00

# Worst residual: 14.41 km
# MJD 60398.000000 (2024 Mar 29  0:00)
A116CgX = A116I21
1 79925U 24999ZZO 24089.49919926  .00000000  00000-0  00000-0 0 23465
2 79925 027.7905 003.0931 9048583 146.1643 007.5390 00.44256651    09

# Worst residual: 3.08 km
# MJD 60399.000000 (2024 Mar 30  0:00)
A116CgX = A116I21
1 79925U 24999ZZO 24090.49919926  .00000000  00000-0  00000-0 0 23467
2 79925 027.7768 003.0477 9050755 146.2507 166.6820 00.44226869    08

# Worst residual: 12.26 km
# MJD 60400.000000 (2024 Mar 31  0:00)
A116CgX = A116I21
1 79925U 24999ZZO 24091.49919926  .00000000  00000-0  00000-0 0 23468
2 79925 027.8036 002.9733 9046751 146.3459 325.8124 00.44218158    06
